{
  "norad_id": 56483,
  "name": "STARLINK-5868",
  "history": [
    {
      "epoch": "2026-03-28T16:04:24.832704",
      "apogee_km": 574.3693452274556,
      "perigee_km": 569.7263437439451,
      "latitude_deg": 32.927671219187474,
      "longitude_deg": -107.40574143989943,
      "semi_major_axis_km": 6950.1848444857005,
      "eccentricity": 0.00033402,
      "inclination_deg": 69.9991,
      "raan_deg": 76.5448,
      "arg_perigee_deg": 271.007,
      "mean_anomaly_deg": 89.0707,
      "mean_motion_rev_day": 14.98332602
    },
    {
      "epoch": "2026-03-29T03:17:21.233184",
      "apogee_km": 574.3566174709204,
      "perigee_km": 569.741693863557,
      "latitude_deg": -45.31807267603641,
      "longitude_deg": -62.54307423974387,
      "semi_major_axis_km": 6950.186155667238,
      "eccentricity": 0.000332,
      "inclination_deg": 69.9991,
      "raan_deg": 75.3667,
      "arg_perigee_deg": 269.5746,
      "mean_anomaly_deg": 90.5032,
      "mean_motion_rev_day": 14.98332178
    }
  ]
}